{
"type": "FeatureCollection",
"name": "polygonized",
"crs": { "type": "name", "properties": { "name": "urn:ogc:def:crs:EPSG::5070" } },
"features": [
{ "type": "Feature", "properties": { "value": 1.0 }, "geometry": { "type": "Polygon", "coordinates": [ [ [ -2150700.0, 2498370.0 ], [ -2150700.0, 2498340.0 ], [ -2150730.0, 2498340.0 ], [ -2150730.0, 2498280.0 ], [ -2150760.0, 2498280.0 ], [ -2150760.0, 2498250.0 ], [ -2150730.0, 2498250.0 ], [ -2150730.0, 2498190.0 ], [ -2150700.0, 2498190.0 ], [ -2150700.0, 2498160.0 ], [ -2150550.0, 2498160.0 ], [ -2150550.0, 2498220.0 ], [ -2150520.0, 2498220.0 ], [ -2150520.0, 2498310.0 ], [ -2150550.0, 2498310.0 ], [ -2150550.0, 2498370.0 ], [ -2150700.0, 2498370.0 ] ] ] } },
{ "type": "Feature", "properties": { "value": 1.0 }, "geometry": { "type": "Polygon", "coordinates": [ [ [ -2152740.0, 2499780.0 ], [ -2152740.0, 2499750.0 ], [ -2152770.0, 2499750.0 ], [ -2152770.0, 2499690.0 ], [ -2152800.0, 2499690.0 ], [ -2152800.0, 2499630.0 ], [ -2152770.0, 2499630.0 ], [ -2152770.0, 2499600.0 ], [ -2152740.0, 2499600.0 ], [ -2152740.0, 2499570.0 ], [ -2152620.0, 2499570.0 ], [ -2152620.0, 2499540.0 ], [ -2152590.0, 2499540.0 ], [ -2152590.0, 2499480.0 ], [ -2152560.0, 2499480.0 ], [ -2152560.0, 2499420.0 ], [ -2152590.0, 2499420.0 ], [ -2152590.0, 2499360.0 ], [ -2152620.0, 2499360.0 ], [ -2152620.0, 2499330.0 ], [ -2152740.0, 2499330.0 ], [ -2152740.0, 2499300.0 ], [ -2152770.0, 2499300.0 ], [ -2152770.0, 2499270.0 ], [ -2152800.0, 2499270.0 ], [ -2152800.0, 2499240.0 ], [ -2152920.0, 2499240.0 ], [ -2152920.0, 2499210.0 ], [ -2152950.0, 2499210.0 ], [ -2152950.0, 2499150.0 ], [ -2152980.0, 2499150.0 ], [ -2152980.0, 2499090.0 ], [ -2152950.0, 2499090.0 ], [ -2152950.0, 2499030.0 ], [ -2152920.0, 2499030.0 ], [ -2152920.0, 2499000.0 ], [ -2152950.0, 2499000.0 ], [ -2152950.0, 2498940.0 ], [ -2152980.0, 2498940.0 ], [ -2152980.0, 2498880.0 ], [ -2152950.0, 2498880.0 ], [ -2152950.0, 2498820.0 ], [ -2152920.0, 2498820.0 ], [ -2152920.0, 2498790.0 ], [ -2152800.0, 2498790.0 ], [ -2152800.0, 2498820.0 ], [ -2152770.0, 2498820.0 ], [ -2152770.0, 2498880.0 ], [ -2152740.0, 2498880.0 ], [ -2152740.0, 2498940.0 ], [ -2152770.0, 2498940.0 ], [ -2152770.0, 2499000.0 ], [ -2152800.0, 2499000.0 ], [ -2152800.0, 2499060.0 ], [ -2152770.0, 2499060.0 ], [ -2152770.0, 2499090.0 ], [ -2152740.0, 2499090.0 ], [ -2152740.0, 2499120.0 ], [ -2152590.0, 2499120.0 ], [ -2152590.0, 2499060.0 ], [ -2152560.0, 2499060.0 ], [ -2152560.0, 2498970.0 ], [ -2152590.0, 2498970.0 ], [ -2152590.0, 2498940.0 ], [ -2152620.0, 2498940.0 ], [ -2152620.0, 2498910.0 ], [ -2152590.0, 2498910.0 ], [ -2152590.0, 2498850.0 ], [ -2152560.0, 2498850.0 ], [ -2152560.0, 2498790.0 ], [ -2152410.0, 2498790.0 ], [ -2152410.0, 2498760.0 ], [ -2152380.0, 2498760.0 ], [ -2152380.0, 2498640.0 ], [ -2152410.0, 2498640.0 ], [ -2152410.0, 2498520.0 ], [ -2152380.0, 2498520.0 ], [ -2152380.0, 2498490.0 ], [ -2152230.0, 2498490.0 ], [ -2152230.0, 2498520.0 ], [ -2152200.0, 2498520.0 ], [ -2152200.0, 2498580.0 ], [ -2152050.0, 2498580.0 ], [ -2152050.0, 2498610.0 ], [ -2152020.0, 2498610.0 ], [ -2152020.0, 2498670.0 ], [ -2151990.0, 2498670.0 ], [ -2151990.0, 2498700.0 ], [ -2151870.0, 2498700.0 ], [ -2151870.0, 2498670.0 ], [ -2151840.0, 2498670.0 ], [ -2151840.0, 2498610.0 ], [ -2151810.0, 2498610.0 ], [ -2151810.0, 2498580.0 ], [ -2151660.0, 2498580.0 ], [ -2151660.0, 2498520.0 ], [ -2151630.0, 2498520.0 ], [ -2151630.0, 2498490.0 ], [ -2151480.0, 2498490.0 ], [ -2151480.0, 2498430.0 ], [ -2151450.0, 2498430.0 ], [ -2151450.0, 2498370.0 ], [ -2151300.0, 2498370.0 ], [ -2151300.0, 2498430.0 ], [ -2151270.0, 2498430.0 ], [ -2151270.0, 2498460.0 ], [ -2151240.0, 2498460.0 ], [ -2151240.0, 2498490.0 ], [ -2151120.0, 2498490.0 ], [ -2151120.0, 2498460.0 ], [ -2151090.0, 2498460.0 ], [ -2151090.0, 2498400.0 ], [ -2151060.0, 2498400.0 ], [ -2151060.0, 2498340.0 ], [ -2151090.0, 2498340.0 ], [ -2151090.0, 2498310.0 ], [ -2151120.0, 2498310.0 ], [ -2151120.0, 2498280.0 ], [ -2151240.0, 2498280.0 ], [ -2151240.0, 2498250.0 ], [ -2151270.0, 2498250.0 ], [ -2151270.0, 2498190.0 ], [ -2151300.0, 2498190.0 ], [ -2151300.0, 2498160.0 ], [ -2151450.0, 2498160.0 ], [ -2151450.0, 2498100.0 ], [ -2151480.0, 2498100.0 ], [ -2151480.0, 2498070.0 ], [ -2151510.0, 2498070.0 ], [ -2151510.0, 2498040.0 ], [ -2151630.0, 2498040.0 ], [ -2151630.0, 2498100.0 ], [ -2151660.0, 2498100.0 ], [ -2151660.0, 2498160.0 ], [ -2151810.0, 2498160.0 ], [ -2151810.0, 2498190.0 ], [ -2151840.0, 2498190.0 ], [ -2151840.0, 2498250.0 ], [ -2151870.0, 2498250.0 ], [ -2151870.0, 2498280.0 ], [ -2151840.0, 2498280.0 ], [ -2151840.0, 2498340.0 ], [ -2151810.0, 2498340.0 ], [ -2151810.0, 2498400.0 ], [ -2151840.0, 2498400.0 ], [ -2151840.0, 2498460.0 ], [ -2151870.0, 2498460.0 ], [ -2151870.0, 2498490.0 ], [ -2151990.0, 2498490.0 ], [ -2151990.0, 2498460.0 ], [ -2152020.0, 2498460.0 ], [ -2152020.0, 2498400.0 ], [ -2152050.0, 2498400.0 ], [ -2152050.0, 2498340.0 ], [ -2152020.0, 2498340.0 ], [ -2152020.0, 2498280.0 ], [ -2151990.0, 2498280.0 ], [ -2151990.0, 2498250.0 ], [ -2152020.0, 2498250.0 ], [ -2152020.0, 2498190.0 ], [ -2152050.0, 2498190.0 ], [ -2152050.0, 2498160.0 ], [ -2152200.0, 2498160.0 ], [ -2152200.0, 2498220.0 ], [ -2152230.0, 2498220.0 ], [ -2152230.0, 2498280.0 ], [ -2152380.0, 2498280.0 ], [ -2152380.0, 2498220.0 ], [ -2152410.0, 2498220.0 ], [ -2152410.0, 2498160.0 ], [ -2152560.0, 2498160.0 ], [ -2152560.0, 2498190.0 ], [ -2152590.0, 2498190.0 ], [ -2152590.0, 2498250.0 ], [ -2152620.0, 2498250.0 ], [ -2152620.0, 2498280.0 ], [ -2152740.0, 2498280.0 ], [ -2152740.0, 2498310.0 ], [ -2152770.0, 2498310.0 ], [ -2152770.0, 2498340.0 ], [ -2152800.0, 2498340.0 ], [ -2152800.0, 2498370.0 ], [ -2152920.0, 2498370.0 ], [ -2152920.0, 2498400.0 ], [ -2152950.0, 2498400.0 ], [ -2152950.0, 2498460.0 ], [ -2152980.0, 2498460.0 ], [ -2152980.0, 2498490.0 ], [ -2153100.0, 2498490.0 ], [ -2153100.0, 2498460.0 ], [ -2153130.0, 2498460.0 ], [ -2153130.0, 2498430.0 ], [ -2153160.0, 2498430.0 ], [ -2153160.0, 2498370.0 ], [ -2153310.0, 2498370.0 ], [ -2153310.0, 2498310.0 ], [ -2153340.0, 2498310.0 ], [ -2153340.0, 2498280.0 ], [ -2153370.0, 2498280.0 ], [ -2153370.0, 2498250.0 ], [ -2153340.0, 2498250.0 ], [ -2153340.0, 2498220.0 ], [ -2153310.0, 2498220.0 ], [ -2153310.0, 2498100.0 ], [ -2153340.0, 2498100.0 ], [ -2153340.0, 2498070.0 ], [ -2153370.0, 2498070.0 ], [ -2153370.0, 2498040.0 ], [ -2153340.0, 2498040.0 ], [ -2153340.0, 2498010.0 ], [ -2153310.0, 2498010.0 ], [ -2153310.0, 2497950.0 ], [ -2153160.0, 2497950.0 ], [ -2153160.0, 2497980.0 ], [ -2153130.0, 2497980.0 ], [ -2153130.0, 2498040.0 ], [ -2152980.0, 2498040.0 ], [ -2152980.0, 2498100.0 ], [ -2152950.0, 2498100.0 ], [ -2152950.0, 2498130.0 ], [ -2152920.0, 2498130.0 ], [ -2152920.0, 2498160.0 ], [ -2152800.0, 2498160.0 ], [ -2152800.0, 2498130.0 ], [ -2152770.0, 2498130.0 ], [ -2152770.0, 2498070.0 ], [ -2152740.0, 2498070.0 ], [ -2152740.0, 2498010.0 ], [ -2152770.0, 2498010.0 ], [ -2152770.0, 2497980.0 ], [ -2152800.0, 2497980.0 ], [ -2152800.0, 2497920.0 ], [ -2152770.0, 2497920.0 ], [ -2152770.0, 2497860.0 ], [ -2152740.0, 2497860.0 ], [ -2152740.0, 2497800.0 ], [ -2152770.0, 2497800.0 ], [ -2152770.0, 2497770.0 ], [ -2152800.0, 2497770.0 ], [ -2152800.0, 2497710.0 ], [ -2152770.0, 2497710.0 ], [ -2152770.0, 2497650.0 ], [ -2152740.0, 2497650.0 ], [ -2152740.0, 2497590.0 ], [ -2152770.0, 2497590.0 ], [ -2152770.0, 2497530.0 ], [ -2152800.0, 2497530.0 ], [ -2152800.0, 2497500.0 ], [ -2152770.0, 2497500.0 ], [ -2152770.0, 2497440.0 ], [ -2152740.0, 2497440.0 ], [ -2152740.0, 2497410.0 ], [ -2152620.0, 2497410.0 ], [ -2152620.0, 2497380.0 ], [ -2152590.0, 2497380.0 ], [ -2152590.0, 2497350.0 ], [ -2152560.0, 2497350.0 ], [ -2152560.0, 2497260.0 ], [ -2152590.0, 2497260.0 ], [ -2152590.0, 2497200.0 ], [ -2152620.0, 2497200.0 ], [ -2152620.0, 2497170.0 ], [ -2152590.0, 2497170.0 ], [ -2152590.0, 2497140.0 ], [ -2152560.0, 2497140.0 ], [ -2152560.0, 2497050.0 ], [ -2152590.0, 2497050.0 ], [ -2152590.0, 2496990.0 ], [ -2152620.0, 2496990.0 ], [ -2152620.0, 2496960.0 ], [ -2152590.0, 2496960.0 ], [ -2152590.0, 2496900.0 ], [ -2152560.0, 2496900.0 ], [ -2152560.0, 2496870.0 ], [ -2152410.0, 2496870.0 ], [ -2152410.0, 2496930.0 ], [ -2152380.0, 2496930.0 ], [ -2152380.0, 2496990.0 ], [ -2152230.0, 2496990.0 ], [ -2152230.0, 2496930.0 ], [ -2152200.0, 2496930.0 ], [ -2152200.0, 2496810.0 ], [ -2152230.0, 2496810.0 ], [ -2152230.0, 2496750.0 ], [ -2152380.0, 2496750.0 ], [ -2152380.0, 2496720.0 ], [ -2152410.0, 2496720.0 ], [ -2152410.0, 2496600.0 ], [ -2152380.0, 2496600.0 ], [ -2152380.0, 2496540.0 ], [ -2152230.0, 2496540.0 ], [ -2152230.0, 2496510.0 ], [ -2152200.0, 2496510.0 ], [ -2152200.0, 2496450.0 ], [ -2152050.0, 2496450.0 ], [ -2152050.0, 2496480.0 ], [ -2152020.0, 2496480.0 ], [ -2152020.0, 2496540.0 ], [ -2151870.0, 2496540.0 ], [ -2151870.0, 2496570.0 ], [ -2151840.0, 2496570.0 ], [ -2151840.0, 2496630.0 ], [ -2151810.0, 2496630.0 ], [ -2151810.0, 2496660.0 ], [ -2151660.0, 2496660.0 ], [ -2151660.0, 2496720.0 ], [ -2151630.0, 2496720.0 ], [ -2151630.0, 2496750.0 ], [ -2151510.0, 2496750.0 ], [ -2151510.0, 2496780.0 ], [ -2151480.0, 2496780.0 ], [ -2151480.0, 2496810.0 ], [ -2151450.0, 2496810.0 ], [ -2151450.0, 2496870.0 ], [ -2151300.0, 2496870.0 ], [ -2151300.0, 2496930.0 ], [ -2151270.0, 2496930.0 ], [ -2151270.0, 2496960.0 ], [ -2151240.0, 2496960.0 ], [ -2151240.0, 2496990.0 ], [ -2151120.0, 2496990.0 ], [ -2151120.0, 2497020.0 ], [ -2151090.0, 2497020.0 ], [ -2151090.0, 2497050.0 ], [ -2151060.0, 2497050.0 ], [ -2151060.0, 2497080.0 ], [ -2150940.0, 2497080.0 ], [ -2150940.0, 2497050.0 ], [ -2150910.0, 2497050.0 ], [ -2150910.0, 2497020.0 ], [ -2150880.0, 2497020.0 ], [ -2150880.0, 2496990.0 ], [ -2150760.0, 2496990.0 ], [ -2150760.0, 2496960.0 ], [ -2150730.0, 2496960.0 ], [ -2150730.0, 2496900.0 ], [ -2150700.0, 2496900.0 ], [ -2150700.0, 2496870.0 ], [ -2150550.0, 2496870.0 ], [ -2150550.0, 2496810.0 ], [ -2150520.0, 2496810.0 ], [ -2150520.0, 2496750.0 ], [ -2150370.0, 2496750.0 ], [ -2150370.0, 2496810.0 ], [ -2150340.0, 2496810.0 ], [ -2150340.0, 2496930.0 ], [ -2150370.0, 2496930.0 ], [ -2150370.0, 2496990.0 ], [ -2150520.0, 2496990.0 ], [ -2150520.0, 2497020.0 ], [ -2150550.0, 2497020.0 ], [ -2150550.0, 2497140.0 ], [ -2150520.0, 2497140.0 ], [ -2150520.0, 2497260.0 ], [ -2150550.0, 2497260.0 ], [ -2150550.0, 2497350.0 ], [ -2150520.0, 2497350.0 ], [ -2150520.0, 2497470.0 ], [ -2150550.0, 2497470.0 ], [ -2150550.0, 2497500.0 ], [ -2150580.0, 2497500.0 ], [ -2150580.0, 2497530.0 ], [ -2150550.0, 2497530.0 ], [ -2150550.0, 2497560.0 ], [ -2150520.0, 2497560.0 ], [ -2150520.0, 2497680.0 ], [ -2150550.0, 2497680.0 ], [ -2150550.0, 2497740.0 ], [ -2150700.0, 2497740.0 ], [ -2150700.0, 2497680.0 ], [ -2150730.0, 2497680.0 ], [ -2150730.0, 2497650.0 ], [ -2150760.0, 2497650.0 ], [ -2150760.0, 2497620.0 ], [ -2150730.0, 2497620.0 ], [ -2150730.0, 2497560.0 ], [ -2150700.0, 2497560.0 ], [ -2150700.0, 2497470.0 ], [ -2150730.0, 2497470.0 ], [ -2150730.0, 2497410.0 ], [ -2150880.0, 2497410.0 ], [ -2150880.0, 2497440.0 ], [ -2150910.0, 2497440.0 ], [ -2150910.0, 2497500.0 ], [ -2150940.0, 2497500.0 ], [ -2150940.0, 2497530.0 ], [ -2150910.0, 2497530.0 ], [ -2150910.0, 2497590.0 ], [ -2150880.0, 2497590.0 ], [ -2150880.0, 2497650.0 ], [ -2150910.0, 2497650.0 ], [ -2150910.0, 2497710.0 ], [ -2150940.0, 2497710.0 ], [ -2150940.0, 2497740.0 ], [ -2151090.0, 2497740.0 ], [ -2151090.0, 2497800.0 ], [ -2151120.0, 2497800.0 ], [ -2151120.0, 2497860.0 ], [ -2151090.0, 2497860.0 ], [ -2151090.0, 2497920.0 ], [ -2151060.0, 2497920.0 ], [ -2151060.0, 2497950.0 ], [ -2150940.0, 2497950.0 ], [ -2150940.0, 2497980.0 ], [ -2150910.0, 2497980.0 ], [ -2150910.0, 2498010.0 ], [ -2150880.0, 2498010.0 ], [ -2150880.0, 2498070.0 ], [ -2150910.0, 2498070.0 ], [ -2150910.0, 2498130.0 ], [ -2150940.0, 2498130.0 ], [ -2150940.0, 2498190.0 ], [ -2150910.0, 2498190.0 ], [ -2150910.0, 2498250.0 ], [ -2150880.0, 2498250.0 ], [ -2150880.0, 2498310.0 ], [ -2150910.0, 2498310.0 ], [ -2150910.0, 2498340.0 ], [ -2150940.0, 2498340.0 ], [ -2150940.0, 2498400.0 ], [ -2150910.0, 2498400.0 ], [ -2150910.0, 2498460.0 ], [ -2150880.0, 2498460.0 ], [ -2150880.0, 2498490.0 ], [ -2150730.0, 2498490.0 ], [ -2150730.0, 2498550.0 ], [ -2150700.0, 2498550.0 ], [ -2150700.0, 2498640.0 ], [ -2150730.0, 2498640.0 ], [ -2150730.0, 2498670.0 ], [ -2150760.0, 2498670.0 ], [ -2150760.0, 2498700.0 ], [ -2150880.0, 2498700.0 ], [ -2150880.0, 2498670.0 ], [ -2150910.0, 2498670.0 ], [ -2150910.0, 2498610.0 ], [ -2150940.0, 2498610.0 ], [ -2150940.0, 2498580.0 ], [ -2151060.0, 2498580.0 ], [ -2151060.0, 2498610.0 ], [ -2151090.0, 2498610.0 ], [ -2151090.0, 2498670.0 ], [ -2151120.0, 2498670.0 ], [ -2151120.0, 2498700.0 ], [ -2151270.0, 2498700.0 ], [ -2151270.0, 2498760.0 ], [ -2151300.0, 2498760.0 ], [ -2151300.0, 2498850.0 ], [ -2151270.0, 2498850.0 ], [ -2151270.0, 2498910.0 ], [ -2151120.0, 2498910.0 ], [ -2151120.0, 2498940.0 ], [ -2151090.0, 2498940.0 ], [ -2151090.0, 2499000.0 ], [ -2151060.0, 2499000.0 ], [ -2151060.0, 2499030.0 ], [ -2151090.0, 2499030.0 ], [ -2151090.0, 2499090.0 ], [ -2151120.0, 2499090.0 ], [ -2151120.0, 2499120.0 ], [ -2151270.0, 2499120.0 ], [ -2151270.0, 2499060.0 ], [ -2151300.0, 2499060.0 ], [ -2151300.0, 2499030.0 ], [ -2151450.0, 2499030.0 ], [ -2151450.0, 2498970.0 ], [ -2151480.0, 2498970.0 ], [ -2151480.0, 2498910.0 ], [ -2151630.0, 2498910.0 ], [ -2151630.0, 2498940.0 ], [ -2151660.0, 2498940.0 ], [ -2151660.0, 2499000.0 ], [ -2151690.0, 2499000.0 ], [ -2151690.0, 2499030.0 ], [ -2151660.0, 2499030.0 ], [ -2151660.0, 2499090.0 ], [ -2151630.0, 2499090.0 ], [ -2151630.0, 2499120.0 ], [ -2151480.0, 2499120.0 ], [ -2151480.0, 2499180.0 ], [ -2151450.0, 2499180.0 ], [ -2151450.0, 2499300.0 ], [ -2151480.0, 2499300.0 ], [ -2151480.0, 2499330.0 ], [ -2151630.0, 2499330.0 ], [ -2151630.0, 2499390.0 ], [ -2151660.0, 2499390.0 ], [ -2151660.0, 2499450.0 ], [ -2151810.0, 2499450.0 ], [ -2151810.0, 2499420.0 ], [ -2151840.0, 2499420.0 ], [ -2151840.0, 2499360.0 ], [ -2151870.0, 2499360.0 ], [ -2151870.0, 2499330.0 ], [ -2151840.0, 2499330.0 ], [ -2151840.0, 2499270.0 ], [ -2151810.0, 2499270.0 ], [ -2151810.0, 2499210.0 ], [ -2151840.0, 2499210.0 ], [ -2151840.0, 2499150.0 ], [ -2151870.0, 2499150.0 ], [ -2151870.0, 2499120.0 ], [ -2152020.0, 2499120.0 ], [ -2152020.0, 2499060.0 ], [ -2152050.0, 2499060.0 ], [ -2152050.0, 2499030.0 ], [ -2152200.0, 2499030.0 ], [ -2152200.0, 2499090.0 ], [ -2152230.0, 2499090.0 ], [ -2152230.0, 2499120.0 ], [ -2152380.0, 2499120.0 ], [ -2152380.0, 2499180.0 ], [ -2152410.0, 2499180.0 ], [ -2152410.0, 2499300.0 ], [ -2152380.0, 2499300.0 ], [ -2152380.0, 2499330.0 ], [ -2152230.0, 2499330.0 ], [ -2152230.0, 2499390.0 ], [ -2152200.0, 2499390.0 ], [ -2152200.0, 2499450.0 ], [ -2152050.0, 2499450.0 ], [ -2152050.0, 2499480.0 ], [ -2152020.0, 2499480.0 ], [ -2152020.0, 2499540.0 ], [ -2151990.0, 2499540.0 ], [ -2151990.0, 2499570.0 ], [ -2152020.0, 2499570.0 ], [ -2152020.0, 2499630.0 ], [ -2152050.0, 2499630.0 ], [ -2152050.0, 2499660.0 ], [ -2152200.0, 2499660.0 ], [ -2152200.0, 2499720.0 ], [ -2152230.0, 2499720.0 ], [ -2152230.0, 2499780.0 ], [ -2152380.0, 2499780.0 ], [ -2152380.0, 2499720.0 ], [ -2152410.0, 2499720.0 ], [ -2152410.0, 2499660.0 ], [ -2152560.0, 2499660.0 ], [ -2152560.0, 2499720.0 ], [ -2152590.0, 2499720.0 ], [ -2152590.0, 2499750.0 ], [ -2152620.0, 2499750.0 ], [ -2152620.0, 2499780.0 ], [ -2152740.0, 2499780.0 ] ], [ [ -2152380.0, 2498040.0 ], [ -2152230.0, 2498040.0 ], [ -2152230.0, 2498010.0 ], [ -2152200.0, 2498010.0 ], [ -2152200.0, 2497890.0 ], [ -2152230.0, 2497890.0 ], [ -2152230.0, 2497800.0 ], [ -2152200.0, 2497800.0 ], [ -2152200.0, 2497740.0 ], [ -2152050.0, 2497740.0 ], [ -2152050.0, 2497770.0 ], [ -2152020.0, 2497770.0 ], [ -2152020.0, 2497830.0 ], [ -2151870.0, 2497830.0 ], [ -2151870.0, 2497800.0 ], [ -2151840.0, 2497800.0 ], [ -2151840.0, 2497770.0 ], [ -2151810.0, 2497770.0 ], [ -2151810.0, 2497710.0 ], [ -2151840.0, 2497710.0 ], [ -2151840.0, 2497650.0 ], [ -2151870.0, 2497650.0 ], [ -2151870.0, 2497620.0 ], [ -2151990.0, 2497620.0 ], [ -2151990.0, 2497590.0 ], [ -2152020.0, 2497590.0 ], [ -2152020.0, 2497560.0 ], [ -2152050.0, 2497560.0 ], [ -2152050.0, 2497530.0 ], [ -2152200.0, 2497530.0 ], [ -2152200.0, 2497590.0 ], [ -2152230.0, 2497590.0 ], [ -2152230.0, 2497620.0 ], [ -2152380.0, 2497620.0 ], [ -2152380.0, 2497680.0 ], [ -2152410.0, 2497680.0 ], [ -2152410.0, 2497800.0 ], [ -2152380.0, 2497800.0 ], [ -2152380.0, 2497890.0 ], [ -2152410.0, 2497890.0 ], [ -2152410.0, 2498010.0 ], [ -2152380.0, 2498010.0 ], [ -2152380.0, 2498040.0 ] ], [ [ -2151450.0, 2497950.0 ], [ -2151300.0, 2497950.0 ], [ -2151300.0, 2497890.0 ], [ -2151270.0, 2497890.0 ], [ -2151270.0, 2497860.0 ], [ -2151240.0, 2497860.0 ], [ -2151240.0, 2497830.0 ], [ -2151270.0, 2497830.0 ], [ -2151270.0, 2497770.0 ], [ -2151300.0, 2497770.0 ], [ -2151300.0, 2497740.0 ], [ -2151450.0, 2497740.0 ], [ -2151450.0, 2497770.0 ], [ -2151480.0, 2497770.0 ], [ -2151480.0, 2497890.0 ], [ -2151450.0, 2497890.0 ], [ -2151450.0, 2497950.0 ] ], [ [ -2152380.0, 2497410.0 ], [ -2152230.0, 2497410.0 ], [ -2152230.0, 2497350.0 ], [ -2152200.0, 2497350.0 ], [ -2152200.0, 2497320.0 ], [ -2152170.0, 2497320.0 ], [ -2152170.0, 2497290.0 ], [ -2152050.0, 2497290.0 ], [ -2152050.0, 2497260.0 ], [ -2152020.0, 2497260.0 ], [ -2152020.0, 2497200.0 ], [ -2151990.0, 2497200.0 ], [ -2151990.0, 2497170.0 ], [ -2152020.0, 2497170.0 ], [ -2152020.0, 2497110.0 ], [ -2152050.0, 2497110.0 ], [ -2152050.0, 2497080.0 ], [ -2152170.0, 2497080.0 ], [ -2152170.0, 2497110.0 ], [ -2152200.0, 2497110.0 ], [ -2152200.0, 2497140.0 ], [ -2152230.0, 2497140.0 ], [ -2152230.0, 2497200.0 ], [ -2152380.0, 2497200.0 ], [ -2152380.0, 2497230.0 ], [ -2152410.0, 2497230.0 ], [ -2152410.0, 2497350.0 ], [ -2152380.0, 2497350.0 ], [ -2152380.0, 2497410.0 ] ], [ [ -2151630.0, 2497200.0 ], [ -2151480.0, 2497200.0 ], [ -2151480.0, 2497140.0 ], [ -2151450.0, 2497140.0 ], [ -2151450.0, 2497020.0 ], [ -2151480.0, 2497020.0 ], [ -2151480.0, 2496990.0 ], [ -2151630.0, 2496990.0 ], [ -2151630.0, 2497020.0 ], [ -2151660.0, 2497020.0 ], [ -2151660.0, 2497080.0 ], [ -2151690.0, 2497080.0 ], [ -2151690.0, 2497110.0 ], [ -2151660.0, 2497110.0 ], [ -2151660.0, 2497140.0 ], [ -2151630.0, 2497140.0 ], [ -2151630.0, 2497200.0 ] ] ] } }
]
}
